{
  "links" : {
    "next" : "https://api.nasa.gov/neo/rest/v1/feed?start_date=2015-06-09&end_date=2015-06-09&detailed=true&api_key=t0TVs3DtDT2H8Oy2Zy8m2eVrNsAVKAexjcZXUckd",
    "prev" : "https://api.nasa.gov/neo/rest/v1/feed?start_date=2015-06-07&end_date=2015-06-07&detailed=true&api_key=t0TVs3DtDT2H8Oy2Zy8m2eVrNsAVKAexjcZXUckd",
    "self" : "https://api.nasa.gov/neo/rest/v1/feed?start_date=2015-06-08&end_date=2015-06-08&detailed=true&api_key=t0TVs3DtDT2H8Oy2Zy8m2eVrNsAVKAexjcZXUckd"
  },
  "element_count" : 9,
  "near_earth_objects" : {
    "2015-06-08" : [ {
      "links" : {
        "self" : "https://api.nasa.gov/neo/rest/v1/neo/2425450?api_key=t0TVs3DtDT2H8Oy2Zy8m2eVrNsAVKAexjcZXUckd"
      },
      "neo_reference_id" : "2425450",
      "name" : "425450 (2010 EV45)",
      "nasa_jpl_url" : "http://ssd.jpl.nasa.gov/sbdb.cgi?sstr=2425450",
      "absolute_magnitude_h" : 19.6,
      "estimated_diameter" : {
        "kilometers" : {
          "estimated_diameter_min" : 0.3195618867,
          "estimated_diameter_max" : 0.7145621017
        },
        "meters" : {
          "estimated_diameter_min" : 319.5618867213,
          "estimated_diameter_max" : 714.5621017269
        },
        "miles" : {
          "estimated_diameter_min" : 0.1985664891,
          "estimated_diameter_max" : 0.4440081677
        },
        "feet" : {
          "estimated_diameter_min" : 1048.4314204307,
          "estimated_diameter_max" : 2344.3639258298
        }
      },
      "is_potentially_hazardous_asteroid" : false,
      "close_approach_data" : [ {
        "close_approach_date" : "2015-06-08",
        "epoch_date_close_approach" : 1433746800000,
        "relative_velocity" : {
          "kilometers_per_second" : "4.8690844813",
          "kilometers_per_hour" : "17528.7041327492",
          "miles_per_hour" : "10891.655076263"
        },
        "miss_distance" : {
          "astronomical" : "0.201848809",
          "lunar" : "78.5191879272",
          "kilometers" : "30196152",
          "miles" : "18763018"
        },
        "orbiting_body" : "Earth"
      } ],
      "orbital_data" : {
        "orbit_id" : "121",
        "orbit_determination_date" : "2017-04-06 09:21:02",
        "orbit_uncertainty" : "0",
        "minimum_orbit_intersection" : ".194589",
        "jupiter_tisserand_invariant" : "3.910",
        "epoch_osculation" : "2458000.5",
        "eccentricity" : ".3705216317163935",
        "semi_major_axis" : "1.849921696683524",
        "inclination" : "7.934578442164847",
        "ascending_node_longitude" : "125.8392583190137",
        "orbital_period" : "919.0273708018041",
        "perihelion_distance" : "1.164485691080786",
        "perihelion_argument" : "118.2208233530998",
        "aphelion_distance" : "2.535357702286263",
        "perihelion_time" : "2458090.022570591177",
        "mean_anomaly" : "324.9323551868687",
        "mean_motion" : ".3917184748109499",
        "equinox" : "J2000"
      }
    }, {
      "links" : {
        "self" : "https://api.nasa.gov/neo/rest/v1/neo/2462550?api_key=t0TVs3DtDT2H8Oy2Zy8m2eVrNsAVKAexjcZXUckd"
      },
      "neo_reference_id" : "2462550",
      "name" : "462550 (2009 CB3)",
      "nasa_jpl_url" : "http://ssd.jpl.nasa.gov/sbdb.cgi?sstr=2462550",
      "absolute_magnitude_h" : 19.4,
      "estimated_diameter" : {
        "kilometers" : {
          "estimated_diameter_min" : 0.3503926411,
          "estimated_diameter_max" : 0.7835017643
        },
        "meters" : {
          "estimated_diameter_min" : 350.3926411083,
          "estimated_diameter_max" : 783.5017643338
        },
        "miles" : {
          "estimated_diameter_min" : 0.2177238258,
          "estimated_diameter_max" : 0.4868452748
        },
        "feet" : {
          "estimated_diameter_min" : 1149.5821926537,
          "estimated_diameter_max" : 2570.543928497
        }
      },
      "is_potentially_hazardous_asteroid" : true,
      "close_approach_data" : [ {
        "close_approach_date" : "2015-06-08",
        "epoch_date_close_approach" : 1433746800000,
        "relative_velocity" : {
          "kilometers_per_second" : "26.483433125",
          "kilometers_per_hour" : "95340.3592499125",
          "miles_per_hour" : "59240.7915572581"
        },
        "miss_distance" : {
          "astronomical" : "0.3708640701",
          "lunar" : "144.2661132812",
          "kilometers" : "55480476",
          "miles" : "34473968"
        },
        "orbiting_body" : "Earth"
      } ],
      "orbital_data" : {
        "orbit_id" : "44",
        "orbit_determination_date" : "2017-05-17 06:19:49",
        "orbit_uncertainty" : "0",
        "minimum_orbit_intersection" : ".0107072",
        "jupiter_tisserand_invariant" : "5.468",
        "epoch_osculation" : "2458000.5",
        "eccentricity" : ".7237244979866418",
        "semi_major_axis" : "1.064699258271139",
        "inclination" : "21.51727012232404",
        "ascending_node_longitude" : "158.785717657312",
        "orbital_period" : "401.2719977783071",
        "perihelion_distance" : ".294150322072109",
        "perihelion_argument" : "229.4531877251622",
        "aphelion_distance" : "1.835248194470169",
        "perihelion_time" : "2458027.435326747253",
        "mean_anomaly" : "335.8350503331948",
        "mean_motion" : ".8971470772772216",
        "equinox" : "J2000"
      }
    }, {
      "links" : {
        "self" : "https://api.nasa.gov/neo/rest/v1/neo/3261681?api_key=t0TVs3DtDT2H8Oy2Zy8m2eVrNsAVKAexjcZXUckd"
      },
      "neo_reference_id" : "3261681",
      "name" : "(2004 VJ1)",
      "nasa_jpl_url" : "http://ssd.jpl.nasa.gov/sbdb.cgi?sstr=3261681",
      "absolute_magnitude_h" : 24.2,
      "estimated_diameter" : {
        "kilometers" : {
          "estimated_diameter_min" : 0.0384197891,
          "estimated_diameter_max" : 0.0859092601
        },
        "meters" : {
          "estimated_diameter_min" : 38.4197891064,
          "estimated_diameter_max" : 85.9092601232
        },
        "miles" : {
          "estimated_diameter_min" : 0.0238729428,
          "estimated_diameter_max" : 0.0533815229
        },
        "feet" : {
          "estimated_diameter_min" : 126.0491808919,
          "estimated_diameter_max" : 281.8545369825
        }
      },
      "is_potentially_hazardous_asteroid" : false,
      "close_approach_data" : [ {
        "close_approach_date" : "2015-06-08",
        "epoch_date_close_approach" : 1433746800000,
        "relative_velocity" : {
          "kilometers_per_second" : "5.1692880883",
          "kilometers_per_hour" : "18609.4371179608",
          "miles_per_hour" : "11563.1805247685"
        },
        "miss_distance" : {
          "astronomical" : "0.1867198484",
          "lunar" : "72.6340179443",
          "kilometers" : "27932892",
          "miles" : "17356694"
        },
        "orbiting_body" : "Earth"
      } ],
      "orbital_data" : {
        "orbit_id" : "24",
        "orbit_determination_date" : "2017-09-04 06:17:03",
        "orbit_uncertainty" : "1",
        "minimum_orbit_intersection" : ".0138293",
        "jupiter_tisserand_invariant" : "6.354",
        "epoch_osculation" : "2458000.5",
        "eccentricity" : ".1641141756679257",
        "semi_major_axis" : ".9436996869000127",
        "inclination" : "1.293864170883082",
        "ascending_node_longitude" : "233.3267896645401",
        "orbital_period" : "334.8491056447977",
        "perihelion_distance" : ".7888251907063376",
        "perihelion_argument" : "332.2700383621672",
        "aphelion_distance" : "1.098574183093688",
        "perihelion_time" : "2458148.231323079894",
        "mean_anomaly" : "201.1724104612731",
        "mean_motion" : "1.075111128956939",
        "equinox" : "J2000"
      }
    } ]
  }
}